SatCatId,ObjectName,LaunchYear,OrbitalPeriod,LaunchMass,StatusCode,Inclination,Status,UcsData,OrbitClassEstimated,LaunchSiteCountry,Owner,UseType,Purpose,LaunchVehicleClass,TLE1,TLE2,MeanMotion,Eccentricity,OrbitClass
55138,USA 340,2022,1446.51,100.0,+,4.04,Active,1,GSO,USA,USA,Military,Technology Development,Falcon,1 55138U 22144E   24275.47063241  .00000083  00000+0  00000+0 0  9991,2 55138   4.0373  65.6903 0001743 114.5130  66.7843  0.99550292  5516,0.99550292,0.0001743,GSO
55140,ONEWEB-0532,2023,109.29,148.0,+,87.91,Active,1,LEO,USA,UK,Commercial,Communications,Falcon,1 55140U 23004A   24277.87546846  .00000206  00000+0  49714-3 0  9999,2 55140  87.9104 129.6297 0001517  61.8405 298.2880 13.17648666 85761,13.17648666,0.0001517,LEO
55141,ONEWEB-0533,2023,109.72,148.0,+,87.89,Active,1,LEO,USA,UK,Commercial,Communications,Falcon,1 55141U 23004B   24277.81957909 -.00000149  00000+0 -44982-3 0  9990,2 55141  87.8858 114.3999 0001488  86.5139 273.6160 13.12445091 86550,13.12445091,0.0001488,LEO
55142,ONEWEB-0541,2023,109.8,148.0,+,87.89,Active,1,LEO,USA,UK,Commercial,Communications,Falcon,1 55142U 23004C   24277.89768590 -.00000445  00000+0 -12914-2 0  9993,2 55142  87.8942 144.8069 0001578  76.2753 283.8551 13.11419419 84514,13.11419419,0.0001578,LEO
55143,ONEWEB-0543,2023,109.2,148.0,+,87.9,Active,1,LEO,USA,UK,Commercial,Communications,Falcon,1 55143U 23004D   24277.88745941  .00000156  00000+0  36336-3 0  9990,2 55143  87.9050  99.2040 0001781  98.5382 261.5952 13.18685601 87818,13.18685601,0.0001781,LEO
55144,ONEWEB-0544,2023,109.2,148.0,+,87.9,Active,1,LEO,USA,UK,Commercial,Communications,Falcon,1 55144U 23004E   24277.88115494 -.00002581  00000+0 -65792-2 0  9998,2 55144  87.9045  99.1916 0001386  64.1413 295.9862 13.18701139 87815,13.18701139,0.0001386,LEO
55145,ONEWEB-0560,2023,109.2,148.0,+,87.91,Active,1,LEO,USA,UK,Commercial,Communications,Falcon,1 55145U 23004F   24277.87482591  .00000130  00000+0  29789-3 0  9996,2 55145  87.9056  99.1501 0002033  91.5330 268.6035 13.18686038 87820,13.18686038,0.0002033,LEO
55146,ONEWEB-0565,2023,109.2,148.0,+,87.9,Active,1,LEO,USA,UK,Commercial,Communications,Falcon,1 55146U 23004G   24277.86850372  .00000120  00000+0  27194-3 0  9999,2 55146  87.9050  99.2243 0002128  74.7993 285.3374 13.18686057 87814,13.18686057,0.0002128,LEO
55147,ONEWEB-0567,2023,109.2,148.0,+,87.9,Active,1,LEO,USA,UK,Commercial,Communications,Falcon,1 55147U 23004H   24277.78631261  .00000191  00000+0  45139-3 0  9992,2 55147  87.9050  99.1948 0002156  83.5434 276.5943 13.18687052 87804,13.18687052,0.0002156,LEO
55148,ONEWEB-0569,2023,109.63,148.0,+,87.89,Active,1,LEO,USA,UK,Commercial,Communications,Falcon,1 55148U 23004J   24277.85508753  .00000165  00000+0  41788-3 0  9997,2 55148  87.8862  83.8167 0002754  89.7227 270.4217 13.13469975 88614,13.13469975,0.0002754,LEO
55149,ONEWEB-0570,2023,109.2,148.0,+,87.91,Active,1,LEO,USA,UK,Commercial,Communications,Falcon,1 55149U 23004K   24277.77365784  .00000156  00000+0  36165-3 0  9997,2 55149  87.9054  99.1964 0001685  60.9764 299.1537 13.18686241 87796,13.18686241,0.0001685,LEO
55150,ONEWEB-0571,2023,109.2,148.0,+,87.91,Active,1,LEO,USA,UK,Commercial,Communications,Falcon,1 55150U 23004L   24277.76733874  .00000126  00000+0  28671-3 0  9997,2 55150  87.9055  99.2044 0002578  72.5810 287.5604 13.18685948 87803,13.18685948,0.0002578,LEO
55151,ONEWEB-0572,2023,109.29,148.0,+,87.91,Active,1,LEO,USA,UK,Commercial,Communications,Falcon,1 55151U 23004M   24277.82991315  .00000134  00000+0  31296-3 0  9997,2 55151  87.9104 129.6458 0001729  72.2094 287.9226 13.17647648 85653,13.17647648,0.0001729,LEO
55152,ONEWEB-0573,2023,109.2,148.0,+,87.9,Active,1,LEO,USA,UK,Commercial,Communications,Falcon,1 55152U 23004N   24277.91276669  .00000134  00000+0  30603-3 0  9997,2 55152  87.9051  99.1912 0002343  66.9747 293.1632 13.18686435 87817,13.18686435,0.0002343,LEO
55153,ONEWEB-0588,2023,109.2,148.0,+,87.91,Active,1,LEO,USA,UK,Commercial,Communications,Falcon,1 55153U 23004P   24277.90644577  .00000060  00000+0  11924-3 0  9997,2 55153  87.9055  99.1648 0001776  70.3219 289.8105 13.18686435 87817,13.18686435,0.0001776,LEO
55154,ONEWEB-0598,2023,109.8,148.0,+,87.89,Active,1,LEO,USA,UK,Commercial,Communications,Falcon,1 55154U 23004Q   24277.87565690  .00000075  00000+0  17516-3 0  9991,2 55154  87.8937 144.8501 0002253  74.1755 285.9621 13.11415460 84469,13.1141546,0.0002253,LEO
55155,ONEWEB-0599,2023,109.29,148.0,+,87.91,Active,1,LEO,USA,UK,Commercial,Communications,Falcon,1 55155U 23004R   24277.86704282  .00000085  00000+0  18571-3 0  9996,2 55155  87.9111 129.6285 0001776  83.9012 276.2321 13.17648410 85660,13.1764841,0.0001776,LEO
55156,ONEWEB-0614,2023,109.8,148.0,+,87.89,Active,1,LEO,USA,UK,Commercial,Communications,Falcon,1 55156U 23004S   24277.87057317  .00000386  00000+0  10532-2 0  9990,2 55156  87.8938 144.8567 0001312  67.2066 292.9201 13.11415891 84401,13.11415891,0.0001312,LEO
55157,ONEWEB-0616,2023,109.29,148.0,+,87.91,Active,1,LEO,USA,UK,Commercial,Communications,Falcon,1 55157U 23004T   24277.83329613  .00000156  00000+0  36924-3 0  9997,2 55157  87.9104 129.6383 0002209 113.0026 247.1338 13.17648498 85879,13.17648498,0.0002209,LEO
55158,ONEWEB-0617,2023,109.8,148.0,+,87.89,Active,1,LEO,USA,UK,Commercial,Communications,Falcon,1 55158U 23004U   24277.93500891  .00000586  00000+0  16169-2 0  9993,2 55158  87.8936 144.8349 0001560  61.1053 299.0231 13.11417113 84436,13.11417113,0.000156,LEO
55159,ONEWEB-0618,2023,100.9,148.0,P,86.91,Active,1,LEO,USA,UK,Commercial,Communications,Falcon,1 55159U 23004V   24277.87314948  .00009114  00000+0  37185-2 0  9990,2 55159  86.9065  54.7491 0011191 295.7769  64.2268 14.27237109 90844,14.27237109,0.0011191,LEO
55160,ONEWEB-0619,2023,109.29,148.0,+,87.91,Active,1,LEO,USA,UK,Commercial,Communications,Falcon,1 55160U 23004W   24277.86536572  .00000076  00000+0  16145-3 0  9992,2 55160  87.9106 129.6090 0001144  89.9792 270.1470 13.17650889 85777,13.17650889,0.0001144,LEO
55161,ONEWEB-0620,2023,109.81,148.0,+,87.89,Active,1,LEO,USA,UK,Commercial,Communications,Falcon,1 55161U 23004X   24277.92992508  .00000629  00000+0  17392-2 0  9993,2 55161  87.8939 144.8490 0001804  61.2400 298.8908 13.11417701 84406,13.11417701,0.0001804,LEO
55162,ONEWEB-0621,2023,109.8,148.0,+,87.89,Active,1,LEO,USA,UK,Commercial,Communications,Falcon,1 55162U 23004Y   24277.88073301 -.00000139  00000+0 -42680-3 0  9997,2 55162  87.8934 144.8244 0001285  80.0732 280.0541 13.11416442 84372,13.11416442,0.0001285,LEO
55163,ONEWEB-0622,2023,109.8,148.0,+,87.89,Active,1,LEO,USA,UK,Commercial,Communications,Falcon,1 55163U 23004Z   24277.88581607 -.00000345  00000+0 -10100-2 0  9991,2 55163  87.8938 144.8413 0001546  45.0352 315.0902 13.11417287 84361,13.11417287,0.0001546,LEO
55164,ONEWEB-0623,2023,109.29,148.0,+,87.91,Active,1,LEO,USA,UK,Commercial,Communications,Falcon,1 55164U 23004AA  24277.86029442  .00000140  00000+0  32815-3 0  9993,2 55164  87.9105 129.6641 0001091  51.1166 309.0063 13.17649357 85766,13.17649357,0.0001091,LEO
55165,ONEWEB-0624,2023,109.72,148.0,+,87.89,Active,1,LEO,USA,UK,Commercial,Communications,Falcon,1 55165U 23004AB  24277.78566400  .00000357  00000+0  95727-3 0  9996,2 55165  87.8858 114.4151 0001440  81.1975 278.9317 13.12442717 86547,13.12442717,0.000144,LEO
55166,ONEWEB-0625,2023,109.29,148.0,+,87.91,Active,1,LEO,USA,UK,Commercial,Communications,Falcon,1 55166U 23004AC  24277.85018619  .00000130  00000+0  30202-3 0  9995,2 55166  87.9104 129.6646 0001726  88.3196 271.8133 13.17651032 85758,13.17651032,0.0001726,LEO
55167,ONEWEB-0626,2023,109.29,148.0,+,87.91,Active,1,LEO,USA,UK,Commercial,Communications,Falcon,1 55167U 23004AD  24277.84004109  .00000115  00000+0  26205-3 0  9995,2 55167  87.9105 129.6666 0002094  74.6615 285.4748 13.17647203 85753,13.17647203,0.0002094,LEO
55168,ONEWEB-0627,2023,109.29,148.0,+,87.91,Active,1,LEO,USA,UK,Commercial,Communications,Falcon,1 55168U 23004AE  24277.82825370  .00000140  00000+0  32863-3 0  9990,2 55168  87.9105 129.6704 0001355  57.2588 302.8674 13.17652025 85752,13.17652025,0.0001355,LEO
55169,ONEWEB-0628,2023,109.72,148.0,+,87.89,Active,1,LEO,USA,UK,Commercial,Communications,Falcon,1 55169U 23004AF  24277.84244120  .00000517  00000+0  14022-2 0  9995,2 55169  87.8854 114.3882 0000880  62.0629 298.0589 13.12443814 86530,13.12443814,8.8e-05,LEO
55170,ONEWEB-0629,2023,109.29,-1.0,+,87.91,Active,0,LEO,USA,UK,Unknown,Unknown,Unknown,1 55170U 23004AG  24277.87970263  .00000081  00000+0  17581-3 0  9994,2 55170  87.9100 129.6366 0001227  86.8902 273.2370 13.17650269 85763,13.17650269,0.0001227,LEO
55171,ONEWEB-0631,2023,109.2,-1.0,+,87.91,Active,0,LEO,USA,UK,Unknown,Unknown,Unknown,1 55171U 23004AH  24277.90012952 -.00000021  00000+0 -86538-4 0  9996,2 55171  87.9059  99.0774 0001967  70.7377 289.3968 13.18687134 87797,13.18687134,0.0001967,LEO
55172,ONEWEB-0709,2023,109.8,-1.0,+,87.89,Active,0,LEO,USA,UK,Unknown,Unknown,Unknown,1 55172U 23004AJ  24277.91972844  .00000353  00000+0  96125-3 0  9991,2 55172  87.8941 144.8531 0002674  70.9211 289.2207 13.11420971 84454,13.11420971,0.0002674,LEO
55173,ONEWEB-0710,2023,109.29,-1.0,+,87.91,Active,0,LEO,USA,UK,Unknown,Unknown,Unknown,1 55173U 23004AK  24277.89403711  .00000128  00000+0  29634-3 0  9992,2 55173  87.9102 129.6565 0001535  76.1944 283.9358 13.17651522 85766,13.17651522,0.0001535,LEO
55174,ONEWEB-0711,2023,109.8,-1.0,+,87.89,Active,0,LEO,USA,UK,Unknown,Unknown,Unknown,1 55174U 23004AL  24277.89090334 -.00000365  00000+0 -10669-2 0  9998,2 55174  87.8939 144.8274 0001172  44.5313 315.5909 13.11417022 84409,13.11417022,0.0001172,LEO
55175,ONEWEB-0713,2023,109.8,-1.0,+,87.89,Active,0,LEO,USA,UK,Unknown,Unknown,Unknown,1 55175U 23004AM  24277.90956404 -.00000123  00000+0 -38361-3 0  9992,2 55175  87.8943 144.8317 0001379  67.1269 293.0004 13.11419166 84398,13.11419166,0.0001379,LEO
